{
  "norad_id": 66300,
  "name": "ICEYE-X65",
  "history": [
    {
      "epoch": "2026-03-28T00:21:16.102080Z",
      "apogee_km": 545.7113679621052,
      "perigee_km": 537.9615512852042,
      "latitude_deg": 1.746878555134601e-05,
      "longitude_deg": 10.556031867806162,
      "height_km": 540.341580173506,
      "semi_major_axis_km": 6919.973459623655,
      "eccentricity": 0.00055996,
      "inclination_deg": 45.4041,
      "raan_deg": 201.3144,
      "arg_perigee_deg": 293.4519,
      "mean_anomaly_deg": 66.5774,
      "mean_motion_rev_day": 15.08155488
    },
    {
      "epoch": "2026-03-28T16:15:06.279264Z",
      "apogee_km": 546.0333581097393,
      "perigee_km": 537.5495258398778,
      "latitude_deg": -4.601247381257889e-05,
      "longitude_deg": 127.9561200204985,
      "height_km": 539.9109725220582,
      "semi_major_axis_km": 6919.928441974808,
      "eccentricity": 0.000613,
      "inclination_deg": 45.4032,
      "raan_deg": 197.8265,
      "arg_perigee_deg": 297.0301,
      "mean_anomaly_deg": 62.9954,
      "mean_motion_rev_day": 15.08170205
    },
    {
      "epoch": "2026-03-29T08:08:55.932864Z",
      "apogee_km": 545.9697954272051,
      "perigee_km": 537.5067879454728,
      "latitude_deg": 1.5673115249090487e-05,
      "longitude_deg": -114.63728121078594,
      "height_km": 539.7099886455546,
      "semi_major_axis_km": 6919.875291686339,
      "eccentricity": 0.0006115,
      "inclination_deg": 45.4064,
      "raan_deg": 194.3428,
      "arg_perigee_deg": 299.3794,
      "mean_anomaly_deg": 60.6477,
      "mean_motion_rev_day": 15.08187581
    },
    {
      "epoch": "2026-03-29T08:08:55.933728Z",
      "apogee_km": 545.9701414209694,
      "perigee_km": 537.5064419517084,
      "latitude_deg": 1.924117421307797e-05,
      "longitude_deg": -114.63728132213015,
      "height_km": 539.7098189236027,
      "semi_major_axis_km": 6919.875291686339,
      "eccentricity": 0.00061155,
      "inclination_deg": 45.4064,
      "raan_deg": 194.3428,
      "arg_perigee_deg": 299.3794,
      "mean_anomaly_deg": 60.6477,
      "mean_motion_rev_day": 15.08187581
    },
    {
      "epoch": "2026-03-30T12:45:47.901024Z",
      "apogee_km": 545.9413904580379,
      "perigee_km": 537.3589168471053,
      "latitude_deg": -2.5447110533840722e-05,
      "longitude_deg": 168.69929230723378,
      "height_km": 539.1924071285871,
      "semi_major_axis_km": 6919.787153652571,
      "eccentricity": 0.00062014,
      "inclination_deg": 45.4055,
      "raan_deg": 188.0711,
      "arg_perigee_deg": 305.7183,
      "mean_anomaly_deg": 54.3121,
      "mean_motion_rev_day": 15.08216396
    }
  ]
}